[{"OBJECT_NAME":"STARLINK-35087","OBJECT_ID":"2025-200X","EPOCH":"2026-03-09T16:54:42.668064","MEAN_MOTION":15.05647932,"ECCENTRICITY":2.221e-5,"INCLINATION":97.6018,"RA_OF_ASC_NODE":139.8223,"ARG_OF_PERICENTER":248.52,"MEAN_ANOMALY":111.6003,"EPHEMERIS_TYPE":0,"CLASSIFICATION_TYPE":"U","NORAD_CAT_ID":65541,"ELEMENT_SET_NO":999,"REV_AT_EPOCH":2913,"BSTAR":0.00034650721,"MEAN_MOTION_DOT":4.942e-5,"MEAN_MOTION_DDOT":0},{"OBJECT_NAME":"SL-24 DEB","OBJECT_ID":"2007-028C","EPOCH":"2026-03-09T19:18:34.668288","MEAN_MOTION":13.26386106,"ECCENTRICITY":0.08142909,"INCLINATION":64.528,"RA_OF_ASC_NODE":235.2459,"ARG_OF_PERICENTER":100.7313,"MEAN_ANOMALY":268.6376,"EPHEMERIS_TYPE":0,"CLASSIFICATION_TYPE":"U","NORAD_CAT_ID":31791,"ELEMENT_SET_NO":999,"REV_AT_EPOCH":90482,"BSTAR":0.00011847102,"MEAN_MOTION_DOT":2.38e-6,"MEAN_MOTION_DDOT":0}]
